#JASON 3
1 41240U 16002A   16024.50792255 -.00000062  00000-0  00000+0 0  9996
2 41240  66.0436 100.8674 0013906 226.0437 133.9319 12.87303023   869